OBJECT_NAME,OBJECT_ID,EPOCH,MEAN_MOTION,ECCENTRICITY,INCLINATION,RA_OF_ASC_NODE,ARG_OF_PERICENTER,MEAN_ANOMALY,EPHEMERIS_TYPE,CLASSIFICATION_TYPE,NORAD_CAT_ID,ELEMENT_SET_NO,REV_AT_EPOCH,BSTAR,MEAN_MOTION_DOT,MEAN_MOTION_DDOT
IRIDIUM 135,2017-083A,2026-07-22T17:36:15.215616,14.34217302,.00021182,86.3986,307.1580,95.2012,264.9426,0,U,43070,999,44924,-.14171076E-4,-.2E-6,0
IRIDIUM 138,2017-083B,2026-07-22T18:12:47.106720,14.34217769,.00020844,86.3999,306.8480,96.4027,263.7406,0,U,43071,999,44923,.29895844E-4,.103E-5,0
IRIDIUM 116,2017-083C,2026-07-22T14:06:11.246688,14.34218137,.00025273,86.3985,307.2043,96.6328,263.5155,0,U,43072,999,44924,.64892265E-4,.202E-5,0
IRIDIUM 130,2017-083D,2026-07-22T16:41:27.173760,14.34218359,.00023326,86.3993,307.4380,100.0903,260.0556,0,U,43073,999,44920,.42305269E-4,.138E-5,0
IRIDIUM 151,2017-083E,2026-07-22T17:45:23.157504,14.34218230,.00022756,86.3987,307.1992,94.9878,265.1578,0,U,43074,999,44923,.26057989E-4,.93E-6,0
IRIDIUM 134,2017-083F,2026-07-22T16:59:43.200096,14.34217389,.00021469,86.3988,307.2212,96.5815,263.5625,0,U,43075,999,44919,-.11941727E-4,-.14E-6,0
IRIDIUM 137,2017-083G,2026-07-22T17:17:59.266176,14.34217557,.00025215,86.3989,307.3093,89.7884,270.3601,0,U,43076,999,44926,-.5712966E-5,.4E-7,0
IRIDIUM 141,2017-083H,2026-07-22T17:08:51.159264,14.34218466,.00021632,86.3984,307.1405,94.3810,265.7633,0,U,43077,999,44926,.57293651E-4,.18E-5,0
IRIDIUM 153,2017-083J,2026-07-22T15:59:59.392896,14.34217591,.00020383,86.3953,275.6379,96.7593,263.3835,0,U,43078,999,45036,-.1305866E-5,.16E-6,0
IRIDIUM 131,2017-083K,2026-07-22T16:50:35.170080,14.34217965,.00021945,86.3990,307.3341,93.2382,266.9065,0,U,43079,999,44919,.9590912E-5,.47E-6,0
IRIDIUM 144,2018-030A,2026-07-22T16:09:07.409952,14.34217991,.00023996,86.3951,275.5639,95.8433,264.3036,0,U,43249,999,43522,.31498586E-4,.108E-5,0
IRIDIUM 149,2018-030B,2026-07-22T14:37:47.410464,14.34217680,.00021249,86.3949,275.5568,94.1484,265.9955,0,U,43250,999,43523,.2019719E-5,.25E-6,0
IRIDIUM 157,2018-030C,2026-07-22T21:47:03.415488,14.34218004,.00022606,86.3950,275.4862,94.7006,265.4448,0,U,43251,999,43525,.13482012E-4,.58E-6,0
IRIDIUM 140,2018-030D,2026-07-22T15:32:35.415168,14.34218327,.00022512,86.3951,275.6076,96.1925,263.9528,0,U,43252,999,43527,.60111935E-4,.188E-5,0
IRIDIUM 145,2018-030E,2026-07-22T21:56:11.495616,14.34217760,.00026187,86.3948,275.4680,96.4301,263.7193,0,U,43253,999,43524,.12408446E-4,.55E-6,0
IRIDIUM 146,2018-030F,2026-07-22T21:28:47.494560,14.34217537,.0002297,86.3952,275.4883,95.3582,264.7876,0,U,43254,999,43525,.3154462E-5,.29E-6,0
IRIDIUM 148,2018-030G,2026-07-22T15:41:43.432224,14.34218283,.00022931,86.3952,275.6330,92.7728,267.3731,0,U,43255,999,43525,.25412547E-4,.91E-6,0
IRIDIUM 142,2018-030H,2026-07-22T06:33:43.468992,14.34218298,.00024392,86.3948,275.6796,95.5594,264.5880,0,U,43256,999,43516,.52676296E-4,.167E-5,0
IRIDIUM 150,2018-030J,2026-07-22T15:50:51.512352,14.34217197,.00023293,86.3950,275.6352,95.8297,264.3165,0,U,43257,999,43524,-.1205019E-5,.16E-6,0
IRIDIUM 143,2018-030K,2026-07-22T07:01:07.445856,14.34217861,.00023568,86.3953,275.8830,95.9811,264.1654,0,U,43258,999,43512,.3914245E-5,.31E-6,0
IRIDIUM 161,2018-047C,2026-07-22T20:59:06.851904,14.43278623,.00021208,86.4454,73.5448,80.9721,279.1720,0,U,43478,999,43028,.66267112E-4,.243E-5,0
IRIDIUM 152,2018-047D,2026-07-22T21:26:02.239872,14.34217227,.00019611,86.3924,73.3981,84.3112,275.8307,0,U,43479,999,42760,-.23893656E-4,-.47E-6,0
IRIDIUM 147,2018-047E,2026-07-22T18:14:14.265312,14.34217615,.0002294,86.3930,73.4600,86.9556,273.1902,0,U,43480,999,42758,-.1199549E-5,.16E-6,0
IRIDIUM 110,2018-047F,2026-07-22T03:19:10.085952,14.34217989,.0001991,86.3934,73.8130,78.8895,281.2524,0,U,43481,999,42748,.64935391E-4,.202E-5,0
IRIDIUM 162,2018-047G,2026-07-22T15:50:31.192800,14.43281223,.00021798,86.4452,73.5251,86.8329,273.3121,0,U,43482,999,43024,.59766097E-4,.221E-5,0
IRIDIUM 160,2018-061A,2026-07-22T18:45:50.374656,14.34218263,.00021947,86.3939,41.9071,86.8743,273.2704,0,U,43569,999,41847,.31477923E-4,.108E-5,0
IRIDIUM 166,2018-061B,2026-07-22T00:57:14.546016,14.34217096,.00021873,86.3932,42.1678,90.3469,269.7977,0,U,43570,999,41839,-.16877194E-4,-.27E-6,0
IRIDIUM 158,2018-061C,2026-07-22T13:35:18.428064,14.34218480,.00021184,86.3937,41.9572,89.5038,270.6401,0,U,43571,999,41843,.51080541E-4,.163E-5,0
IRIDIUM 165,2018-061D,2026-07-22T19:13:14.500128,14.34218025,.00022667,86.3942,41.9062,90.1741,269.9715,0,U,43572,999,41849,.34083472E-4,.115E-5,0
IRIDIUM 155,2018-061E,2026-07-22T19:58:54.422112,14.34218022,.00021887,86.3935,41.7602,90.9065,269.2382,0,U,43573,999,41846,.16415151E-4,.66E-6,0
