{"epoch":1784799577,"count":18318,"objects":[{"id":"43070","name":"IRIDIUM 135","type":"PAYLOAD","l1":"1 43070U 17083A   26203.73350944 -.00000020  00000-0 -14171-4 0  9993","l2":"2 43070  86.3986 307.1580 0002118  95.2012 264.9426 14.34217302449244"},{"id":"43071","name":"IRIDIUM 138","type":"PAYLOAD","l1":"1 43071U 17083B   26203.75887855  .00000103  00000-0  29896-4 0  9992","l2":"2 43071  86.3999 306.8480 0002084  96.4027 263.7406 14.34217769449236"},{"id":"43072","name":"IRIDIUM 116","type":"PAYLOAD","l1":"1 43072U 17083C   26203.58763017  .00000202  00000-0  64892-4 0  9992","l2":"2 43072  86.3985 307.2043 0002527  96.6328 263.5155 14.34218137449240"},{"id":"43073","name":"IRIDIUM 130","type":"PAYLOAD","l1":"1 43073U 17083D   26203.69545340  .00000138  00000-0  42305-4 0  9995","l2":"2 43073  86.3993 307.4380 0002333 100.0903 260.0556 14.34218359449209"},{"id":"43074","name":"IRIDIUM 151","type":"PAYLOAD","l1":"1 43074U 17083E   26203.73985136  .00000093  00000-0  26058-4 0  9999","l2":"2 43074  86.3987 307.1992 0002276  94.9878 265.1578 14.34218230449238"},{"id":"43075","name":"IRIDIUM 134","type":"PAYLOAD","l1":"1 43075U 17083F   26203.70813889 -.00000014  00000-0 -11942-4 0  9993","l2":"2 43075  86.3988 307.2212 0002147  96.5815 263.5625 14.34217389449196"},{"id":"43076","name":"IRIDIUM 137","type":"PAYLOAD","l1":"1 43076U 17083G   26203.72082484  .00000004  00000-0 -57130-5 0  9993","l2":"2 43076  86.3989 307.3093 0002522  89.7884 270.3601 14.34217557449268"},{"id":"43077","name":"IRIDIUM 141","type":"PAYLOAD","l1":"1 43077U 17083H   26203.71448101  .00000180  00000-0  57294-4 0  9999","l2":"2 43077  86.3984 307.1405 0002163  94.3810 265.7633 14.34218466449264"},{"id":"43078","name":"IRIDIUM 153","type":"PAYLOAD","l1":"1 43078U 17083J   26203.66665964  .00000016  00000-0 -13059-5 0  9993","l2":"2 43078  86.3953 275.6379 0002038  96.7593 263.3835 14.34217591450364"},{"id":"43079","name":"IRIDIUM 131","type":"PAYLOAD","l1":"1 43079U 17083K   26203.70179595  .00000047  00000-0  95909-5 0  9996","l2":"2 43079  86.3990 307.3341 0002194  93.2382 266.9065 14.34217965449197"},{"id":"43249","name":"IRIDIUM 144","type":"PAYLOAD","l1":"1 43249U 18030A   26203.67300243  .00000108  00000-0  31499-4 0  9991","l2":"2 43249  86.3951 275.5639 0002400  95.8433 264.3036 14.34217991435222"},{"id":"43250","name":"IRIDIUM 149","type":"PAYLOAD","l1":"1 43250U 18030B   26203.60957651  .00000025  00000-0  20197-5 0  9999","l2":"2 43250  86.3949 275.5568 0002125  94.1484 265.9955 14.34217680435237"},{"id":"43251","name":"IRIDIUM 157","type":"PAYLOAD","l1":"1 43251U 18030C   26203.90767842  .00000058  00000-0  13482-4 0  9998","l2":"2 43251  86.3950 275.4862 0002261  94.7006 265.4448 14.34218004435258"},{"id":"43252","name":"IRIDIUM 140","type":"PAYLOAD","l1":"1 43252U 18030D   26203.64763212  .00000188  00000-0  60112-4 0  9993","l2":"2 43252  86.3951 275.6076 0002251  96.1925 263.9528 14.34218327435276"},{"id":"43253","name":"IRIDIUM 145","type":"PAYLOAD","l1":"1 43253U 18030E   26203.91402194  .00000055  00000-0  12408-4 0  9991","l2":"2 43253  86.3948 275.4680 0002619  96.4301 263.7193 14.34217760435244"},{"id":"43254","name":"IRIDIUM 146","type":"PAYLOAD","l1":"1 43254U 18030F   26203.89499415  .00000029  00000-0  31545-5 0  9996","l2":"2 43254  86.3952 275.4883 0002297  95.3582 264.7876 14.34217537435258"},{"id":"43255","name":"IRIDIUM 148","type":"PAYLOAD","l1":"1 43255U 18030G   26203.65397491  .00000091  00000-0  25413-4 0  9997","l2":"2 43255  86.3952 275.6330 0002293  92.7728 267.3731 14.34218283435255"},{"id":"43256","name":"IRIDIUM 142","type":"PAYLOAD","l1":"1 43256U 18030H   26203.27341978  .00000167  00000-0  52676-4 0  9990","l2":"2 43256  86.3948 275.6796 0002439  95.5594 264.5880 14.34218298435161"},{"id":"43257","name":"IRIDIUM 150","type":"PAYLOAD","l1":"1 43257U 18030J   26203.66031843  .00000016  00000-0 -12050-5 0  9998","l2":"2 43257  86.3950 275.6352 0002329  95.8297 264.3165 14.34217197435244"},{"id":"43258","name":"IRIDIUM 143","type":"PAYLOAD","l1":"1 43258U 18030K   26203.29244729  .00000031  00000-0  39142-5 0  9994","l2":"2 43258  86.3953 275.8830 0002357  95.9811 264.1654 14.34217861435121"},{"id":"43478","name":"IRIDIUM 161","type":"PAYLOAD","l1":"1 43478U 18047C   26203.87438486  .00000243  00000-0  66267-4 0  9997","l2":"2 43478  86.4454  73.5448 0002121  80.9721 279.1720 14.43278623430288"},{"id":"43479","name":"IRIDIUM 152","type":"PAYLOAD","l1":"1 43479U 18047D   26203.89308148 -.00000047  00000-0 -23894-4 0  9994","l2":"2 43479  86.3924  73.3981 0001961  84.3112 275.8307 14.34217227427602"},{"id":"43480","name":"IRIDIUM 147","type":"PAYLOAD","l1":"1 43480U 18047E   26203.75988733  .00000016  00000-0 -11995-5 0  9990","l2":"2 43480  86.3930  73.4600 0002294  86.9556 273.1902 14.34217615427580"},{"id":"43481","name":"IRIDIUM 110","type":"PAYLOAD","l1":"1 43481U 18047F   26203.13831118  .00000202  00000-0  64935-4 0  9994","l2":"2 43481  86.3934  73.8130 0001991  78.8895 281.2524 14.34217989427489"},{"id":"43482","name":"IRIDIUM 162","type":"PAYLOAD","l1":"1 43482U 18047G   26203.66008325  .00000221  00000-0  59766-4 0  9996","l2":"2 43482  86.4452  73.5251 0002180  86.8329 273.3121 14.43281223430244"},{"id":"43569","name":"IRIDIUM 160","type":"PAYLOAD","l1":"1 43569U 18061A   26203.78183304  .00000108  00000-0  31478-4 0  9996","l2":"2 43569  86.3939  41.9071 0002195  86.8743 273.2704 14.34218263418475"},{"id":"43570","name":"IRIDIUM 166","type":"PAYLOAD","l1":"1 43570U 18061B   26203.03975169 -.00000027  00000-0 -16877-4 0  9992","l2":"2 43570  86.3932  42.1678 0002187  90.3469 269.7977 14.34217096418398"},{"id":"43571","name":"IRIDIUM 158","type":"PAYLOAD","l1":"1 43571U 18061C   26203.56618551  .00000163  00000-0  51081-4 0  9995","l2":"2 43571  86.3937  41.9572 0002118  89.5038 270.6401 14.34218480418436"},{"id":"43572","name":"IRIDIUM 165","type":"PAYLOAD","l1":"1 43572U 18061D   26203.80086227  .00000115  00000-0  34083-4 0  9992","l2":"2 43572  86.3942  41.9062 0002267  90.1741 269.9715 14.34218025418491"},{"id":"43573","name":"IRIDIUM 155","type":"PAYLOAD","l1":"1 43573U 18061E   26203.83257433  .00000066  00000-0  16415-4 0  9999","l2":"2 43573  86.3935  41.7602 0002189  90.9065 269.2382 14.34218022418469"}]}